     2.100          NAVIGATION                              RINEX VERSION / TYPE
fic2rin                                 01/06/2013 00:16:02 PGM / RUN BY / DATE
                                                            END OF HEADER
15 13  1  5 21 59 44.0 -.104283913970D-03 -.113686837722D-11  .000000000000D+00
     .210000000000D+02  .589062500000D+02  .521557439247D-08  .236677888682D+01
     .311061739922D-05  .520573987160D-02  .431947410107D-05  .515369547653D+04
     .597584000000D+06 -.124797224998D-06 -.305100591928D+01  .119209289551D-06
     .942934110362D+00  .287531250000D+03  .100122304987D+00 -.851249743683D-08
     .321441960776D-11  .100000000000D+01  .172100000000D+04  .000000000000D+00
     .240000000000D+01  .000000000000D+00 -.102445483208D-07  .210000000000D+02
     .591456000000D+06  .400000000000D+01
 3 13  1  5 21 59 44.0  .151324085891D-03  .511590769747D-11  .000000000000D+00
     .160000000000D+02 -.202500000000D+02  .533415076022D-08  .177506823760D+01
    -.127963721752D-05  .159257203341D-01  .620260834694D-05  .515366202927D+04
     .597584000000D+06 -.614672899246D-07 -.226039056577D-01 -.398606061935D-06
     .933484775776D+00  .247000000000D+03  .126361001043D+01 -.848963934184D-08
     .284654714154D-09  .100000000000D+01  .172100000000D+04  .000000000000D+00
     .240000000000D+01  .000000000000D+00 -.465661287308D-08  .160000000000D+02
     .591876000000D+06  .400000000000D+01
17 13  1  5 21 59 44.0  .624852254987D-04 -.375166564481D-11  .000000000000D+00
     .000000000000D+00 -.232187500000D+02  .452268838813D-08  .300164467288D+01
    -.118650496006D-05  .797339575365D-02  .680424273014D-05  .515377553749D+04
     .597584000000D+06  .931322574615D-08  .155133152296D+00 -.894069671631D-07
     .964719827882D+00  .248968750000D+03 -.226534429165D+01 -.792925885689D-08
     .254296306748D-09  .100000000000D+01  .172100000000D+04  .000000000000D+00
     .240000000000D+01  .000000000000D+00 -.107102096081D-07  .000000000000D+00
     .595956000000D+06  .400000000000D+01
 3 13  1  5 23 59 44.0  .151360407472D-03  .511590769747D-11  .000000000000D+00
     .330000000000D+02 -.161250000000D+02  .521021702645D-08  .282523854122D+01
    -.832602381706D-06  .159252654994D-01  .590085983276D-05  .515366309929D+04
     .604784000000D+06  .154599547386D-06 -.226629548830D-01 -.126659870148D-06
     .933487820109D+00  .248531250000D+03  .126363239454D+01 -.818034074403D-08
     .206080012631D-09  .100000000000D+01  .172100000000D+04  .000000000000D+00
     .240000000000D+01  .000000000000D+00 -.465661287308D-08  .330000000000D+02
     .597606000000D+06  .400000000000D+01
17 13  1  5 23 59 44.0  .624582171440D-04 -.375166564481D-11  .000000000000D+00
     .100000000000D+01 -.267187500000D+02  .457661920599D-08 -.223147768984D+01
    -.133551657200D-05  .797433033586D-02  .655278563499D-05  .515377359772D+04
     .604784000000D+06  .223517417908D-07  .155076095565D+00 -.115483999252D-06
     .964721655066D+00  .255531250000D+03 -.226528790787D+01 -.793318759196D-08
     .242510101519D-09  .100000000000D+01  .172100000000D+04  .000000000000D+00
     .240000000000D+01  .000000000000D+00 -.107102096081D-07  .100000000000D+01
     .597606000000D+06  .400000000000D+01
 1 13  1  6  0  0  0.0  .291654840112D-03  .227373675443D-11  .000000000000D+00
     .490000000000D+02 -.150000000000D+02  .460519182472D-08  .168310313749D+01
    -.873580574989D-06  .153416022658D-02  .900961458683D-05  .515370619965D+04
     .000000000000D+00  .167638063431D-07  .104271475083D+01  .540167093277D-07
     .959891858823D+00  .203281250000D+03  .491067584902D+00 -.800711924294D-08
    -.216437586923D-09  .100000000000D+01  .172200000000D+04  .000000000000D+00
     .240000000000D+01  .000000000000D+00  .838190317154D-08  .490000000000D+02
     .597606000000D+06  .400000000000D+01
 2 13  1  6  0  0  0.0  .413846690208D-03  .136424205266D-11  .000000000000D+00
     .550000000000D+02 -.295937500000D+02  .500913722210D-08  .266584641161D+01
    -.146403908730D-05  .118367178366D-01  .943243503571D-05  .515358584976D+04
     .000000000000D+00 -.139698386192D-06  .102414238846D+01 -.206753611565D-06
     .938422494412D+00  .183375000000D+03 -.269537711588D+01 -.811319509000D-08
    -.206794328100D-09  .100000000000D+01  .172200000000D+04  .000000000000D+00
     .240000000000D+01  .000000000000D+00 -.176951289177D-07  .550000000000D+02
     .597606000000D+06  .400000000000D+01
 4 13  1  6  0  0  0.0  .965083017945D-04  .111413100967D-10  .000000000000D+00
     .720000000000D+02 -.213125000000D+02  .512771358985D-08 -.345705607706D+00
    -.946223735809D-06  .104087650543D-01  .920705497265D-05  .515372071266D+04
     .000000000000D+00  .409781932831D-07  .104075056095D+01  .121071934700D-06
     .937454542962D+00  .190250000000D+03  .950507334434D+00 -.844892336014D-08
    -.209294432239D-09  .100000000000D+01  .172200000000D+04  .000000000000D+00
     .240000000000D+01  .000000000000D+00 -.651925802231D-08  .720000000000D+02
     .597606000000D+06  .400000000000D+01
 5 13  1  6  0  0  0.0 -.376977026463D-03 -.216004991671D-11  .000000000000D+00
     .105000000000D+03  .724687500000D+02  .470233872843D-08 -.158560588978D+01
     .353902578354D-05  .318542064633D-02  .101961195469D-04  .515382306480D+04
     .000000000000D+00  .316649675369D-07  .208891215224D+01 -.465661287308D-07
     .949286058238D+00  .172531250000D+03  .312778576735D+00 -.812248119109D-08
     .957182727646D-10  .100000000000D+01  .172200000000D+04  .000000000000D+00
     .240000000000D+01  .000000000000D+00 -.102445483208D-07  .105000000000D+03
     .597606000000D+06  .400000000000D+01
 6 13  1  6  0  0  0.0  .398811884224D-03 -.135287336889D-10  .000000000000D+00
     .490000000000D+02 -.156250000000D+02  .515342894672D-08 -.155709026048D+01
    -.787898898125D-06  .756264163647D-02  .639259815216D-05  .515368121529D+04
     .000000000000D+00 -.875443220139D-07 -.647312840207D-01 -.614672899246D-07
     .940206246518D+00  .247593750000D+03 -.397928787080D+00 -.843320841984D-08
     .289654922433D-09  .100000000000D+01  .172200000000D+04  .000000000000D+00
     .240000000000D+01  .000000000000D+00 -.512227416039D-08  .490000000000D+02
     .597606000000D+06  .400000000000D+01
 7 13  1  6  0  0  0.0  .165562145412D-03  .443378667114D-11  .000000000000D+00
     .790000000000D+02 -.573437500000D+02  .427589239380D-08  .127372659073D+01
    -.280886888504D-05  .605047587305D-02  .696815550327D-05  .515371626282D+04
     .000000000000D+00  .707805156708D-07 -.207992016681D+01  .819563865662D-07
     .975687403720D+00  .252187500000D+03 -.292263760226D+01 -.815641117584D-08
    -.344300055765D-09  .100000000000D+01  .172200000000D+04  .000000000000D+00
     .240000000000D+01  .000000000000D+00 -.111758708954D-07  .790000000000D+02
     .597606000000D+06  .400000000000D+01
 8 13  1  6  0  0  0.0  .384543091059D-05  .227373675443D-12  .000000000000D+00
     .820000000000D+02 -.594687500000D+02  .372622664087D-08  .683870646597D+00
    -.300817191601D-05  .127104524290D-01  .729411840439D-05  .515361766243D+04
     .000000000000D+00  .894069671631D-07 -.199173503928D+01  .186264514923D-06
     .998158170666D+00  .254875000000D+03 -.288658569342D+01 -.791425823205D-08
    -.358229207399D-09  .100000000000D+01  .172200000000D+04  .000000000000D+00
     .340000000000D+01  .000000000000D+00 -.419095158577D-08  .820000000000D+02
     .597606000000D+06  .400000000000D+01
 9 13  1  6  0  0  0.0  .211662147194D-03  .261479726760D-11  .000000000000D+00
     .750000000000D+02 -.616562500000D+02  .410481383912D-08  .107038412737D+01
    -.348500907421D-05  .170628201449D-01  .633299350739D-05  .515283918571D+04
     .000000000000D+00 -.191852450371D-06 -.210409613740D+01 -.290572643280D-06
     .984367582792D+00  .273750000000D+03  .163527189420D+01 -.822034241026D-08
    -.254653464482D-09  .100000000000D+01  .172200000000D+04  .000000000000D+00
     .340000000000D+01  .000000000000D+00 -.558793544769D-08  .750000000000D+02
     .597606000000D+06  .400000000000D+01
10 13  1  6  0  0  0.0 -.650710426271D-04 -.147792889038D-11  .000000000000D+00
     .121000000000D+03  .874062500000D+02  .487448875631D-08 -.122672422073D+01
     .460073351860D-05  .122346929274D-01  .959448516369D-05  .515375483704D+04
     .000000000000D+00  .311061739922D-06  .210917276011D+01  .558793544769D-07
     .944148216797D+00  .181250000000D+03  .787744751291D+00 -.819141263379D-08
     .892894335490D-10  .100000000000D+01  .172200000000D+04  .000000000000D+00
     .240000000000D+01  .000000000000D+00 -.279396772385D-08  .121000000000D+03
     .597606000000D+06  .400000000000D+01
11 13  1  6  0  0  0.0 -.340627972037D-03 -.386535248253D-11  .000000000000D+00
     .100000000000D+02 -.378437500000D+02  .640633827828D-08  .147425984322D+01
    -.210292637348D-05  .138125239173D-01  .766292214394D-05  .515367936325D+04
     .000000000000D+00 -.303611159325D-06  .756204145338D+00 -.115483999252D-06
     .888478516536D+00  .195406250000D+03  .113667883048D+01 -.905573435054D-08
    -.183221917643D-09  .100000000000D+01  .172200000000D+04  .000000000000D+00
     .240000000000D+01  .000000000000D+00 -.116415321827D-07  .100000000000D+02
     .597606000000D+06  .400000000000D+01
12 13  1  6  0  0  0.0  .110797584057D-03  .204636307899D-11  .000000000000D+00
     .940000000000D+02 -.386875000000D+02  .398802326003D-08  .100245676234D+01
    -.198185443878D-05  .413938309066D-02  .880099833012D-05  .515364790154D+04
     .000000000000D+00  .502914190292D-07 -.102174368704D+01  .614672899246D-07
     .982466413955D+00  .220250000000D+03  .136228805539D+00 -.779675333750D-08
     .146791828755D-09  .100000000000D+01  .172200000000D+04  .000000000000D+00
     .240000000000D+01  .000000000000D+00 -.121071934700D-07  .940000000000D+02
     .597606000000D+06  .400000000000D+01
